{
  "norad_id": 58651,
  "name": "SHIYAN-24C 02",
  "history": [
    {
      "epoch": "2026-03-28T17:31:18.307200",
      "apogee_km": 575.7298817960127,
      "perigee_km": 570.8068964994181,
      "latitude_deg": -67.92775324582018,
      "longitude_deg": 115.18700799997896,
      "semi_major_axis_km": 6951.405389147715,
      "eccentricity": 0.0003541,
      "inclination_deg": 97.3994,
      "raan_deg": 59.66,
      "arg_perigee_deg": 58.7477,
      "mean_anomaly_deg": 301.4093,
      "mean_motion_rev_day": 14.97937998
    }
  ]
}